     2.100          NAVIGATION                              RINEX VERSION / TYPE
fic2rin                                 11/30/2013 00:32:49 PGM / RUN BY / DATE
                                                            END OF HEADER
19 13 11 29 14  0  0.0 -.421934295446D-03 -.261479726760D-11  .000000000000D+00
     .470000000000D+02  .156875000000D+02  .484913055718D-08 -.294559534684D+01
     .752508640289D-06  .963751133531D-02  .619702041149D-05  .515375630951D+04
     .482400000000D+06 -.121071934700D-06  .601870644545D+00 -.135973095894D-06
     .964218722849D+00  .263625000000D+03  .398547714072D+00 -.805676416800D-08
     .374658463172D-09  .100000000000D+01  .176800000000D+04  .000000000000D+00
     .240000000000D+01  .000000000000D+00 -.149011611938D-07  .470000000000D+02
     .475206000000D+06  .400000000000D+01
20 13 11 29 14  0  0.0  .140664167702D-03  .295585778076D-11  .000000000000D+00
     .490000000000D+02  .546250000000D+02  .509592655151D-08 -.484046764548D-01
     .282935798168D-05  .585020415019D-02  .114571303129D-04  .515363743591D+04
     .482400000000D+06 -.800937414169D-07  .254604642773D+01  .875443220139D-07
     .927487023775D+00  .140625000000D+03  .129039971238D+01 -.832213236450D-08
    -.253581991279D-09  .100000000000D+01  .176800000000D+04  .000000000000D+00
     .240000000000D+01  .000000000000D+00 -.791624188423D-08  .490000000000D+02
     .475206000000D+06  .400000000000D+01
21 13 11 29 14  0  0.0 -.330752693117D-03 -.170530256582D-11  .000000000000D+00
     .730000000000D+02 -.401875000000D+02  .570595196152D-08  .498090841014D+00
    -.183098018169D-05  .207119217375D-01  .674650073051D-05  .515358874702D+04
     .482400000000D+06 -.290572643280D-06  .155275588290D+01  .106170773506D-06
     .931440100527D+00  .238875000000D+03 -.208693456056D+01 -.894965850349D-08
    -.553237330270D-09  .100000000000D+01  .176800000000D+04  .000000000000D+00
     .240000000000D+01  .000000000000D+00 -.111758708954D-07  .730000000000D+02
     .475206000000D+06  .400000000000D+01
22 13 11 29 14  0  0.0  .197859480977D-03  .227373675443D-11  .000000000000D+00
     .680000000000D+02  .489062500000D+02  .509342644737D-08 -.109258954585D+01
     .246241688728D-05  .668871623930D-02  .109896063805D-04  .515365098953D+04
     .482400000000D+06  .577419996262D-07  .260152198413D+01  .176951289177D-06
     .924407326670D+00  .149625000000D+03 -.204687152492D+01 -.830891752834D-08
    -.302869758598D-09  .100000000000D+01  .176800000000D+04  .000000000000D+00
     .340000000000D+01  .000000000000D+00 -.172294676304D-07  .680000000000D+02
     .475206000000D+06  .400000000000D+01
24 13 11 29 14  0  0.0 -.182627700269D-04 -.682121026330D-12  .000000000000D+00
     .430000000000D+02 -.767500000000D+02  .470555314803D-08  .245134235291D+01
    -.396184623241D-05  .141295825597D-02  .344403088093D-05  .515364409256D+04
     .482400000000D+06  .447034835815D-07 -.159445902088D+01  .000000000000D+00
     .957788280641D+00  .309468750000D+03  .836128809378D-01 -.843999441679D-08
    -.232866842696D-09  .100000000000D+01  .176800000000D+04  .000000000000D+00
     .240000000000D+01  .000000000000D+00  .279396772385D-08  .430000000000D+02
     .475206000000D+06  .400000000000D+01
25 13 11 29 14  0  0.0  .170570332557D-03  .295585778076D-11  .000000000000D+00
     .590000000000D+02 -.613750000000D+02  .403981113149D-08  .156116765747D+00
    -.322051346302D-05  .280288071372D-02  .110864639282D-04  .515369444656D+04
     .482400000000D+06  .614672899246D-07 -.542174475857D+00  .186264514923D-07
     .974972500524D+00  .177468750000D+03  .662864807780D+00 -.778603860547D-08
     .189293599124D-09  .100000000000D+01  .176800000000D+04  .000000000000D+00
     .240000000000D+01  .000000000000D+00  .558793544769D-08  .590000000000D+02
     .475206000000D+06  .400000000000D+01
26 13 11 29 14  0  0.0  .236083753407D-03 -.103455022327D-10  .000000000000D+00
     .600000000000D+02  .898750000000D+02  .418481717158D-08  .295711209774D+01
     .451318919659D-05  .211734728655D-01  .357814133167D-05  .515368347168D+04
     .482400000000D+06  .149011611938D-06 -.253693919946D+01 -.191852450371D-06
     .977162446464D+00  .315562500000D+03  .125547268953D+01 -.786711341114D-08
     .213223167315D-09  .100000000000D+01  .176800000000D+04  .000000000000D+00
     .240000000000D+01  .000000000000D+00 -.605359673500D-08  .600000000000D+02
     .475206000000D+06  .400000000000D+01
27 13 11 29 14  0  0.0 -.400608405471D-05 -.318323145621D-11  .000000000000D+00
     .720000000000D+02  .245000000000D+02  .487163149443D-08 -.250990910934D+01
     .120140612125D-05  .475798966363D-03  .654533505440D-05  .515366213036D+04
     .482400000000D+06  .260770320892D-07  .506111059706D+00 -.372529029846D-07
     .961772849631D+00  .254562500000D+03  .567989401850D+00 -.821427072878D-08
     .431089385175D-09  .100000000000D+01  .176800000000D+04  .000000000000D+00
     .240000000000D+01  .000000000000D+00  .186264514923D-08  .720000000000D+02
     .475206000000D+06  .400000000000D+01
28 13 11 29 14  0  0.0  .312618911266D-03  .295585778076D-11  .000000000000D+00
     .440000000000D+02 -.364062500000D+02  .381408744348D-08 -.126932743075D+01
    -.154227018356D-05  .191204518778D-01  .120624899864D-04  .515365994644D+04
     .482400000000D+06 -.279396772385D-07 -.477332301183D+00  .519677996635D-06
     .985359371030D+00  .160125000000D+03 -.175207022035D+01 -.772425031746D-08
     .295726603914D-09  .100000000000D+01  .176800000000D+04  .000000000000D+00
     .240000000000D+01  .000000000000D+00 -.107102096081D-07  .440000000000D+02
     .475206000000D+06  .400000000000D+01
29 13 11 29 14  0  0.0  .491023529321D-03  .318323145621D-11  .000000000000D+00
     .340000000000D+02  .224062500000D+02  .478305637635D-08  .831647860580D+00
     .120326876640D-05  .148076459300D-02  .665336847305D-05  .515379017639D+04
     .482400000000D+06 -.316649675369D-07  .559411163298D+00 -.521540641785D-07
     .967768879778D+00  .257531250000D+03 -.995639684046D+00 -.814283918194D-08
     .483591572101D-09  .100000000000D+01  .176800000000D+04  .000000000000D+00
     .240000000000D+01  .000000000000D+00 -.931322574615D-08  .340000000000D+02
     .475206000000D+06  .400000000000D+01
31 13 11 29 14  0  0.0  .330419279635D-03  .568434188608D-12  .000000000000D+00
     .210000000000D+02 -.714062500000D+02  .407802700905D-08  .141021490331D+01
    -.372156500816D-05  .814385688864D-02  .417232513428D-05  .515372507668D+04
     .482400000000D+06  .135973095894D-06 -.155744634937D+01  .242143869400D-07
     .979302032912D+00  .305937500000D+03 -.714457121287D+00 -.806140721854D-08
    -.256082095419D-09  .100000000000D+01  .176800000000D+04  .000000000000D+00
     .240000000000D+01  .000000000000D+00 -.130385160446D-07  .210000000000D+02
     .475206000000D+06  .400000000000D+01
32 13 11 29 14  0  0.0 -.523339491338D-03  .500222085975D-11  .000000000000D+00
     .360000000000D+02  .785625000000D+02  .449733018900D-08  .189883830905D+01
     .414066016674D-05  .116010826314D-01  .112149864435D-04  .515355282211D+04
     .482400000000D+06 -.130385160446D-07  .268950791488D+01  .176951289177D-06
     .948650453979D+00  .155156250000D+03 -.230543349159D+00 -.790318634229D-08
    -.312513017422D-09  .100000000000D+01  .176800000000D+04  .000000000000D+00
     .240000000000D+01  .000000000000D+00 -.325962901115D-08  .360000000000D+02
     .475206000000D+06  .400000000000D+01
27 13 11 29 13 59 44.0 -.400701537728D-05 -.318323145621D-11  .000000000000D+00
     .200000000000D+01  .245000000000D+02  .487163149443D-08 -.251224158885D+01
     .120140612125D-05  .475803390145D-03  .654533505440D-05  .515366213036D+04
     .482384000000D+06  .260770320892D-07  .506111210386D+00 -.372529029846D-07
     .961772839391D+00  .254562500000D+03  .567988132037D+00 -.821427072878D-08
     .431446542909D-09  .100000000000D+01  .176800000000D+04  .000000000000D+00
     .240000000000D+01  .000000000000D+00  .186264514923D-08  .200000000000D+01
     .476616000000D+06  .400000000000D+01
15 13 11 29 13 59 44.0 -.149630475789D-03 -.193267624127D-11  .000000000000D+00
     .370000000000D+02  .104281250000D+03  .509914097112D-08 -.278753311510D+01
     .538118183613D-05  .591931375675D-02  .467151403427D-05  .515360907745D+04
     .482384000000D+06 -.102445483208D-06 -.266548399707D+01 -.316649675369D-07
     .939018054214D+00  .280281250000D+03  .190319161386D+00 -.852106922245D-08
     .270368404786D-09  .100000000000D+01  .176800000000D+04  .000000000000D+00
     .240000000000D+01  .000000000000D+00 -.102445483208D-07  .370000000000D+02
     .481956000000D+06  .400000000000D+01
15 13 11 29 15 59 44.0 -.149644911289D-03 -.193267624127D-11  .000000000000D+00
     .380000000000D+02  .984687500000D+02  .514342853016D-08 -.173748974448D+01
     .503659248352D-05  .591994170099D-02  .426732003689D-05  .515360676765D+04
     .489584000000D+06 -.558793544769D-07 -.266554571904D+01 -.968575477600D-07
     .939020051097D+00  .287562500000D+03  .190501116210D+00 -.855785646907D-08
     .292155026572D-09  .100000000000D+01  .176800000000D+04  .000000000000D+00
     .240000000000D+01  .000000000000D+00 -.102445483208D-07  .380000000000D+02
     .482406000000D+06  .400000000000D+01
27 13 11 29 15 59 44.0 -.402983278036D-05 -.318323145621D-11  .000000000000D+00
     .300000000000D+01  .220000000000D+02  .481020036415D-08 -.145939455184D+01
     .109337270260D-05  .475212000310D-03  .699609518051D-05  .515366477013D+04
     .489584000000D+06 -.186264514923D-07  .506051722285D+00  .391155481339D-07
     .961776236286D+00  .244968750000D+03  .565330779382D+00 -.819891294621D-08
     .503592405216D-09  .100000000000D+01  .176800000000D+04  .000000000000D+00
     .240000000000D+01  .000000000000D+00  .186264514923D-08  .300000000000D+01
     .482406000000D+06  .400000000000D+01
